0 DELTA 1 R/B(2)
1 15206U 84088F   13281.74395639  .00000113  00000-0  17621-2 0  3643
2 15206 027.5454 097.2443 7781218 358.2225 340.9606 01.58232927167262
0 DELTA 1 R/B(2)
1 15206U 84088F   13283.67337420 -.00000136  00000-0  00000+0 0  3669
2 15206 027.4639 096.8080 7782147 358.9466 000.0199 01.58233617167295
0 DELTA 1 R/B(2)
1 15206U 84088F   13283.68115529  .00000090  00000-0  13245-2 0  3659
2 15206 027.5575 096.8156 7780588 358.9340 004.4487 01.58233931167294
0 DELTA 1 R/B(2)
1 15206U 84088F   13285.58000898  .00000060  00000-0  74643-3 0  3660
2 15206 027.5681 096.3959 7780011 359.6297 006.0981 01.58234889167322
0 DELTA 1 R/B(2)
1 15206U 84088F   13287.47008677  .00000037  00000-0  62552-3 0  3674
2 15206 027.5781 095.9784 7779548 000.3213 002.7602 01.58235213167353
0 DELTA 1 R/B(2)
1 15206U 84088F   13290.33281537 -.00000062  00000-0  10169-3 0  3688
2 15206 027.5929 095.3460 7778992 001.3687 193.4841 01.58235882167399
0 DELTA 1 R/B(2)
1 15206U 84088F   13292.52469219 -.00000154  00000-0 -79677-3 0  3699
2 15206 027.6037 094.8620 7778539 002.1707 002.0613 01.58236758167431
0 DELTA 1 R/B(2)
1 15206U 84088F   13293.76230995 -.00000168  00000-0 -10123-2 0  3700
2 15206 027.6101 094.5888 7778271 002.6234 347.0607 01.58236895167458
0 DELTA 1 R/B(2)
1 15206U 84088F   13295.68967103 -.00000170  00000-0 -13592-2 0  3718
2 15206 027.6205 094.1636 7777945 003.3284 004.9700 01.58236946167483
